ZACUBE-1 (TSHEPISOSAT)  
1 39417U 13066B   24110.85252983  .00013625  00000+0  14390-2 0  9995
2 39417  97.7291  68.1815 0051357 355.8107   4.2673 14.88382768562909
WNISAT-1                
1 39423U 13066H   24111.12260096  .00004239  00000+0  81835-3 0  9997
2 39423  97.6750 310.1517 0170314 191.1434 168.5975 14.55029053552203
TRITON-1                
1 39427U 13066M   24111.20543264  .00009099  00000+0  12947-2 0  9997
2 39427  97.8430  31.0825 0101927 268.8933  90.0597 14.73528584557864
DELFI-N3XT              
1 39428U 13066N   24110.76201151  .00023661  00000+0  30769-2 0  9997
2 39428  97.8393  30.6815 0100943 278.2120  80.7652 14.77098504557649
GOMX-1                  
1 39430U 13066Q   24111.15961198  .00006888  00000+0  11483-2 0  9992
2 39430  97.7415 349.0469 0142674  77.4182 284.2935 14.63700991554559
CUBEBUG-2 (LO-74)       
1 39440U 13066AA  24110.81437041  .00010433  00000+0  12451-2 0  9997
2 39440  97.8092  55.7913 0072754 104.4581 256.4720 14.82521165559689
NEE-02 KRYSAOR          
1 39441U 13066AB  24110.81946844  .00006414  00000+0  82166-3 0  9999
2 39441  97.8186  51.8825 0076450 124.9208 235.9218 14.79566866559309
FUNCUBE-1 (AO-73)       
1 39444U 13066AE  24110.85231641  .00024979  00000+0  24681-2 0  9991
2 39444  97.7146  71.1658 0048187 337.5056  22.4049 14.91027062561415
UWE-3                   
1 39446U 13066AG  24110.59198624  .00012747  00000+0  14384-2 0  9996
2 39446  97.7762  61.6336 0063006  53.1388 307.5581 14.85232282560001
BRITE-CA1 (TORONTO)     
1 40020U 14033L   24110.99889863  .00004335  00000+0  70847-3 0  9998
2 40020  97.8672 250.2105 0082242 278.0039  81.1841 14.69129466526430
DUCHIFAT-1              
1 40021U 14033M   24111.17027018  .00027605  00000+0  19280-2 0  9994
2 40021  98.0869  92.1197 0011383 300.9388  59.0717 15.05253430535397
NANOSATC-BR1            
1 40024U 14033Q   24110.87471489  .00030936  00000+0  23713-2 0  9995
2 40024  98.0553  80.6398 0007613  18.2009 341.9485 15.01741754534497
QB50P1                  
1 40025U 14033R   24110.88467444  .00024727  00000+0  20623-2 0  9991
2 40025  98.0355  69.7925 0009605   1.8853 358.2403 14.98542516534143
QB50P2                  
1 40032U 14033Y   24110.80437110  .00016092  00000+0  13879-2 0  9999
2 40032  98.0020  61.7766 0009593   3.3550 356.7734 14.97340377533938
PERSEUS-M2              
1 40037U 14033AD  24110.81428731  .00007397  00000+0  76989-3 0  9994
2 40037  97.9247  41.4226 0014263  33.8976 326.3150 14.90061807533136
PERSEUS-M1              
1 40039U 14033AF  24110.76316631  .00005895  00000+0  61874-3 0  9993
2 40039  97.9058  37.5931 0014063  33.6935 326.5173 14.89811325532983
POLYITAN-1              
1 40042U 14033AJ  24110.85317491  .00034829  00000+0  27278-2 0  9990
2 40042  98.0578  72.8432 0013525 340.3326  19.7373 15.00841624534083
TIGRISAT                
1 40043U 14033AK  24110.94582582  .00010694  00000+0  14325-2 0  9999
2 40043  97.6895 276.2299 0056920 132.6316 227.9715 14.78448699528859
AEROCUBE 6A             
1 40045U 14033AM  24110.96872206  .00023155  00000+0  28123-2 0  9995
2 40045  97.6674 286.7968 0052410 112.6684 248.0083 14.82521707529402
AEROCUBE 6B             
1 40046U 14033AN  24111.03832450  .00023267  00000+0  27711-2 0  9998
2 40046  97.6635 285.5187 0051101 108.3727 252.3054 14.83376391529602
UKUBE-1                 
1 40074U 14037F   24110.97406062  .00024219  00000+0  23500-2 0  9991
2 40074  98.3414  37.3789 0002287 262.1047  97.9911 14.92640310530097
BRITE-PL2 (HEWELIUSZ)   
1 40119U 14049B   24110.80777381  .00008205  00000+0  88845-3 0  9992
2 40119  97.8777 210.7706 0015978 192.3146 167.7682 14.88407176523891
CP10 (EXOCUBE)          
1 40380U 15003E   24110.95996030  .00299781  00000+0  25579-2 0  9998
2 40380  99.0999 119.8502 0044046 317.4593  42.3252 15.67350118510267
AEROCUBE 5C             
1 40965U 15058B   24110.57760196  .00007169  00000+0  67734-3 0  9994
2 40965  64.7707 181.5004 0187325 326.3240  32.6074 14.82058706248357
AEROCUBE 7              
1 40966U 15058C   24110.52843049  .00009406  00000+0  85655-3 0  9997
2 40966  64.7685 175.9386 0182843 326.0445  32.9065 14.83723955248402
VELOX-II                
1 41171U 15077F   24110.38459563  .00140648  00000+0  19509-2 0  9993
2 41171  14.9887 158.2750 0002114 271.1264  88.8820 15.55122050462565
HORYU-4                 
1 41340U 16012D   24110.98635354  .00030098  00000+0  15779-2 0  9993
2 41340  31.0036 354.4442 0009728  97.8404 262.3340 15.14586957449313
E-ST@R-II               
1 41459U 16025D   24111.21891654  .00694623  18482-3  26581-2 0  9992
2 41459  98.1263 356.4667 0031443  85.8203 274.6659 15.86614546440511
RAVAN                   
1 41849U 16067B   24111.06048197  .00026442  00000+0  15138-2 0  9997
2 41849  98.0616 285.4101 0013390 222.2951 137.7246 15.12536214407199
CELTEE 1                
1 41850U 16067C   24110.90217059  .00017583  00000+0  12220-2 0  9991
2 41850  98.0975 277.4577 0001573  76.2896 283.8505 15.05592166406653
OPTICUBE 04             
1 41851U 16067D   24110.41404625  .00006828  00000+0  52258-3 0  9991
2 41851  98.0665 272.9389 0017779 253.1153 106.8121 15.02116593406413
AEROCUBE 8D             
1 41852U 16067E   24111.00193479  .00021758  00000+0  14683-2 0  9998
2 41852  98.1027 277.1701 0004314 305.4144  54.6678 15.06634342406636
AEROCUBE 8C             
1 41853U 16067F   24111.01349492  .00022834  00000+0  15427-2 0  9991
2 41853  98.0826 275.9084 0007860 231.3204 128.7319 15.06561579406621
PROMETHEUS 2-1          
1 41854U 16067G   24111.00542490  .00051337  00000+0  27736-2 0  9990
2 41854  98.0972 282.3405 0013091 253.4233 106.5560 15.14443573406920
PROMETHEUS 2-3          
1 41855U 16067H   24111.00099440  .00049428  00000+0  26730-2 0  9994
2 41855  98.0902 281.8817 0011001 262.3053  97.6928 15.14442390406927
DIDO-2                  
1 42000U 17008BE  24111.14130098  .00236740  00000+0  19795-2 0  9991
2 42000  97.1445 171.0778 0001343 332.3384  27.7807 15.69286321399641
AALTO-1                 
1 42775U 17036L   24111.07557160  .00119912  00000+0  16186-2 0  9998
2 42775  97.1132 140.4024 0007070  76.8238 283.3807 15.57348565380037
URSA MAIOR              
1 42776U 17036M   24111.06209745  .00278911  00000+0  24697-2 0  9992
2 42776  97.1089 143.6734 0004986  77.9515 282.2305 15.67741348380235
DIAMOND RED             
1 42783U 17036U   24110.83034622  .01316949  98012-3  22888-2 0  9993
2 42783  97.0895 150.2529 0002841 199.3654 160.7519 16.02476628380653
CICERO 6                
1 42793U 17036AE  24111.06886666  .00314996  00000+0  22978-2 0  9998
2 42793  97.0969 147.8797 0003740  97.1718 262.9972 15.72345405380618
CORVUS BC2              
1 42846U 17042X   24110.51867586  .00007665  00000+0  66917-3 0  9997
2 42846  97.3748 298.9134 0007391 252.2316 107.8100 14.97053461368667
CORVUS BC1              
1 42847U 17042Y   24110.81984801  .00011064  00000+0  95927-3 0  9992
2 42847  97.3762 299.5921 0006493 250.6166 109.4355 14.97226696368721
MIRATA                  
1 43015U 17073C   24111.21558730  .00042538  00000+0  21056-2 0  9998
2 43015  97.6049 356.7307 0180126  98.6165 263.5514 15.04515083347602
MAKERSAT 0              
1 43016U 17073D   24110.61787601  .00025722  00000+0  14978-2 0  9994
2 43016  97.5903 351.2821 0203807 119.1703 243.0081 14.96100635347156
CORVUS BC3              
1 43118U 18004H   24110.78273186  .00217462  00000+0  16720-2 0  9999
2 43118  97.2898 194.6080 0002882 122.9161 237.2380 15.71371217349693
GOMX-4B                 
1 43196U 18015E   24110.98900905  .00106318  00000+0  15051-2 0  9998
2 43196  97.6055 280.4781 0009501 170.5131 189.6304 15.56083597346452
GOMX-4A                 
1 43197U 18015F   24111.15432749  .00109616  00000+0  11561-2 0  9991
2 43197  97.5979 284.9338 0007988 164.1876 195.9633 15.63845849346770
CICERO 10               
1 43690U 18088A   24110.78444114  .00156207  00000+0  16280-2 0  9997
2 43690  85.0182 221.1146 0007793 163.1131 197.0394 15.64008391303036
PROXIMA I               
1 43694U 18088E   24110.76277917  .00417306  00000+0  19207-2 0  9996
2 43694  85.0085 214.4036 0002377 182.6987 177.4276 15.82541398303516
PROXIMA II              
1 43696U 18088G   24110.78464665  .00418589  00000+0  20523-2 0  9995
2 43696  85.0091 214.5564 0002041 182.3930 177.7335 15.81163014303495
SIRION PATHFINDER-2     
1 43759U 18099B   24110.88300161  .00016835  00000+0  12870-2 0  9992
2 43759  97.5374 168.6841 0014768 123.9125 236.3506 15.01911247293750
CORVUS BC4              
1 43767U 18099K   24111.09079517  .00014761  00000+0  11499-2 0  9995
2 43767  97.5215 166.2611 0008774 193.0232 167.0767 15.01277858293672
MOVE-II                 
1 43780U 18099Y   24111.14812670  .00050121  00000+0  28241-2 0  9994
2 43780  97.5264 174.7755 0008113 169.0522 191.0887 15.12991909294141
SPACEBEE-7              
1 43816U 18099BL  24110.91575533  .00041046  00000+0  25460-2 0  9998
2 43816  97.5542 175.3922 0011837 127.6546 232.5758 15.09535185293611
SPACEBEE-6              
1 43818U 18099BN  24111.13698613  .00078805  00000+0  37408-2 0  9998
2 43818  97.5465 180.0736 0010617 134.6513 225.5589 15.18872356294080
SHIELDS 1               
1 43850U 18104B   24111.04239807  .00027867  00000+0  79748-3 0  9993
2 43850  85.0231 322.5331 0009143 294.5820  65.4476 15.35772624297234
ZACUBE-2                
1 43907U 18111AH  24111.16304781  .01798753  26933-2  18617-2 0  9994
2 43907  97.0658 354.9521 0008236 175.5770 184.5590 16.11257040297085
SONATE                  
1 44400U 19038Q   24110.97267992  .00054790  00000+0  17999-2 0  9993
2 44400  97.7126 102.5947 0014811 318.7235  41.2885 15.31268968265165
